1 20442U 90005G   21166.46226783  .00000006  00000-0  18625-4 0  9992
2 20442  98.7413 121.9102 0012018 161.7012 198.4607 14.32988664640547